COSMOS 2425 (716)       
1 29670U 06062A   18012.50041303 -.00000058  00000-0  10000-3 0  9994
2 29670  65.3581 297.7984 0022558 343.1933 169.9932  2.13104884 85999
COSMOS 2426 (717)       
1 29671U 06062B   18011.85777647 -.00000062  00000-0  10000-3 0  9994
2 29671  65.3747 297.9152 0016307 168.2659  68.7580  2.13103037 85982
COSMOS 2433 (720)       
1 32275U 07052A   18011.66288295 -.00000046  00000-0  10000-3 0  9995
2 32275  65.6125  58.6186 0004391 259.5788 162.8578  2.13104755 79495
COSMOS 2432 (719)       
1 32276U 07052B   18011.78036161 -.00000045  00000-0  10000-3 0  9991
2 32276  65.6250  58.6909 0011630 326.2011 138.6902  2.13103890 79494
COSMOS 2434 (721)       
1 32393U 07065A   18012.19215787 -.00000059  00000-0  00000+0 0  9994
2 32393  64.9743 296.8597 0002452 100.6661 256.4022  2.13102856 78200
COSMOS 2436 (723)       
1 32395U 07065C   18011.43171034 -.00000063  00000-0  10000-3 0  9998
2 32395  64.9826 296.9326 0016074 355.8102 187.5937  2.13104234 78126
COSMOS 2456 (730)       
1 36111U 09070A   18011.54755166  .00000081  00000-0  00000-0 0  9997
2 36111  64.1829 176.4547 0003194 350.5054  43.8722  2.13102883 62863
COSMOS 2457 (733)       
1 36112U 09070B   18011.64462737  .00000080  00000-0  00000+0 0  9996
2 36112  64.1637 176.3652 0007023 148.0595  88.4189  2.13101626 62868
COSMOS 2458 (734)       
1 36113U 09070C   18011.68957506  .00000080  00000-0  10000-3 0  9999
2 36113  64.1699 176.3734 0003163  58.8985 260.2293  2.13102012 62866
COSMOS 2459 (731)       
1 36400U 10007A   18011.52066407 -.00000047  00000-0  10000-3 0  9998
2 36400  65.5214  57.7033 0026837 348.1907 185.3824  2.13102130 61215
COSMOS 2461 (735)       
1 36401U 10007B   18011.59980598 -.00000046  00000-0  10000-3 0  9991
2 36401  65.5143  57.6776 0004902  63.9430  80.9413  2.13102050 61217
COSMOS 2460 (732)       
1 36402U 10007C   18011.52930064 -.00000046  00000-0  10000-3 0  9998
2 36402  65.5045  57.6494 0001593 261.6970 230.0346  2.13101682 61218
COSMOS 2464 (736)       
1 37139U 10041C   18012.02030788 -.00000060  00000-0  00000+0 0  9995
2 37139  64.5770 296.7476 0024247   8.7824  84.2100  2.13102668 57290
COSMOS 2471 (701K)      
1 37372U 11009A   18012.04445899 -.00000042  00000-0  00000+0 0  9994
2 37372  65.5020  57.5782 0009455 236.2105  71.3473  2.13107658 53497
COSMOS 2474 (742)       
1 37829U 11055A   18011.59650569  .00000083  00000-0  00000-0 0  9998
2 37829  64.5072 177.1047 0006216 239.5132  51.2636  2.13101880 48854
COSMOS 2476 (744)       
1 37867U 11064A   18012.38887993  .00000075  00000-0  00000+0 0  9991
2 37867  64.4860 177.1438 0015791 238.2054 346.4463  2.13101956 48223
COSMOS 2477 (745)       
1 37868U 11064B   18011.70553052  .00000082  00000-0  00000+0 0  9991
2 37868  64.4954 177.2137 0013554 239.1895   0.2390  2.13101775 48169
COSMOS 2475 (743)       
1 37869U 11064C   18011.52637166  .00000084  00000-0  00000-0 0  9994
2 37869  64.5028 177.2128 0017813 269.3631 149.2245  2.13101993 48174
COSMOS 2485 (747)       
1 39155U 13019A   18011.67465376  .00000083  00000-0  00000-0 0  9993
2 39155  64.6562 177.2432 0016351 232.5882 209.0946  2.13101966 36688
COSMOS 2492 (754)       
1 39620U 14012A   18012.07366844 -.00000042  00000-0  10000-3 0  9999
2 39620  65.3950  57.5376 0015117 323.5551  98.7630  2.13103414 29645
COSMOS 2500 (755)       
1 40001U 14032A   18011.87779745 -.00000044  00000-0  00000-0 0  9999
2 40001  65.3353  57.5277 0007248 217.5528 277.0900  2.13102697 27854
COSMOS 2501 (702K)      
1 40315U 14075A   18011.69939565 -.00000064  00000-0  00000-0 0  9994
2 40315  64.3034 298.0270 0015146 212.4130 308.8209  2.13098419 24253
COSMOS 2514 (751)       
1 41330U 16008A   18011.66778578 -.00000046  00000-0  00000-0 0  9992
2 41330  65.1377  57.6254 0010747 222.3293 291.7313  2.13103310 15010
COSMOS 2516 (753)       
1 41554U 16032A   18012.11979639 -.00000061  00000-0  00000+0 0  9995
2 41554  64.5226 297.8344 0012037 227.6081 164.8598  2.13101667 12632
COSMOS 2522 (752)       
1 42939U 17055A   18011.55046179 -.00000064  00000-0  00000+0 0  9993
2 42939  64.7531 297.7740 0008259 258.7984 283.2856  2.13102007  2370
